{
    "links": {
        "self": "http://www.neowsapp.com/rest/v1/neo/3838871?api_key=iIulBulltgU6a56xZRHN4H3l9WmuAYTsLGpBGhQ2"
    },
    "id": "3838871",
    "neo_reference_id": "3838871",
    "name": "(2019 DA2)",
    "designation": "2019 DA2",
    "nasa_jpl_url": "http://ssd.jpl.nasa.gov/sbdb.cgi?sstr=3838871",
    "absolute_magnitude_h": 27.2,
    "estimated_diameter": {
        "kilometers": {
            "estimated_diameter_min": 0.0096506147,
            "estimated_diameter_max": 0.0215794305
        },
        "meters": {
            "estimated_diameter_min": 9.6506146958,
            "estimated_diameter_max": 21.5794304844
        },
        "miles": {
            "estimated_diameter_min": 0.0059966121,
            "estimated_diameter_max": 0.0134088323
        },
        "feet": {
            "estimated_diameter_min": 31.6621227185,
            "estimated_diameter_max": 70.7986587106
        }
    },
    "is_potentially_hazardous_asteroid": false,
    "close_approach_data": [
        {
            "close_approach_date": "2019-02-21",
            "close_approach_date_full": "2019-Feb-21 07:28",
            "epoch_date_close_approach": 1550734080000,
            "relative_velocity": {
                "kilometers_per_second": "7.6982043754",
                "kilometers_per_hour": "27713.5357515065",
                "miles_per_hour": "17220.1133673736"
            },
            "miss_distance": {
                "astronomical": "0.0181999196",
                "lunar": "7.0797687244",
                "kilometers": "2722669.206331252",
                "miles": "1691788.1955531976"
            },
            "orbiting_body": "Earth"
        }
    ],
    "orbital_data": {
        "orbit_id": "1",
        "orbit_determination_date": "2019-03-03 16:42:06",
        "first_observation_date": "2019-02-28",
        "last_observation_date": "2019-03-03",
        "data_arc_in_days": 3,
        "observations_used": 16,
        "orbit_uncertainty": "8",
        "minimum_orbit_intersection": ".0134397",
        "jupiter_tisserand_invariant": "3.679",
        "epoch_osculation": "2458544.5",
        "eccentricity": ".5067257403905867",
        "semi_major_axis": "1.989885984251667",
        "inclination": "3.829214156013714",
        "ascending_node_longitude": "336.9072995484811",
        "orbital_period": "1025.275823186368",
        "perihelion_distance": ".9815595355888894",
        "perihelion_argument": "153.8036372188453",
        "aphelion_distance": "2.998212432914444",
        "perihelion_time": "2458518.758597878624",
        "mean_anomaly": "9.038450487299635",
        "mean_motion": ".3511250259283268",
        "equinox": "J2000",
        "orbit_class": {
            "orbit_class_type": "APO",
            "orbit_class_description": "Near-Earth asteroid orbits which cross the Earth’s orbit similar to that of 1862 Apollo",
            "orbit_class_range": "a (semi-major axis) > 1.0 AU; q (perihelion) < 1.017 AU"
        }
    },
    "is_sentry_object": false
}